{"norad_cat_id":"55451","object_name":"STARLINK-5656","object_id":"2023-015C","object_type":"PAYLOAD","country_code":"US","epoch":"2026-05-30T04:46:43.012416","creation_date":"2026-05-30T07:36:53","launch_date":"2023-02-02","decay_date":null,"inclination":43.0042,"eccentricity":0.0001853,"mean_motion":15.27578161,"period":94.267,"semimajor_axis":6861.192,"apoapsis":484.328,"periapsis":481.785,"tle_line0":"0 STARLINK-5656","tle_line1":"1 55451U 23015C   26150.19910894 -.00000277  00000-0 -51599-6 0  9999","tle_line2":"2 55451  43.0042 228.7644 0001853 283.2712  76.7933 15.27578161183189","fetched_at":"2026-05-30T16:18:06.042337+00:00"}
{"norad_cat_id":"61908","object_name":"OBJECT Q","object_id":"2024-205Q","object_type":"UNKNOWN","country_code":"PRC","epoch":"2026-05-30T04:46:39.107136","creation_date":"2026-05-30T07:46:57","launch_date":"2024-11-11","decay_date":null,"inclination":97.414,"eccentricity":0.0013676,"mean_motion":15.17127883,"period":94.916,"semimajor_axis":6892.663,"apoapsis":523.954,"periapsis":505.102,"tle_line0":"0 OBJECT Q","tle_line1":"1 61908U 24205Q   26150.19906374  .00008411  00000-0  42630-3 0  9992","tle_line2":"2 61908  97.4140 223.0803 0013676 118.1072 242.1546 15.17127883 85608","fetched_at":"2026-05-30T16:18:06.042337+00:00"}
{"norad_cat_id":"63291","object_name":"OBJECT A","object_id":"2025-055A","object_type":"UNKNOWN","country_code":"PRC","epoch":"2026-05-30T04:46:36.661152","creation_date":"2026-05-30T07:46:57","launch_date":"2025-03-17","decay_date":null,"inclination":97.651,"eccentricity":0.0015431,"mean_motion":15.16348451,"period":94.965,"semimajor_axis":6895.025,"apoapsis":527.53,"periapsis":506.25,"tle_line0":"0 OBJECT A","tle_line1":"1 63291U 25055A   26150.19903543  .00013001  00000-0  67119-3 0  9998","tle_line2":"2 63291  97.6510 289.9390 0015431 201.3439 158.7152 15.16348451 66321","fetched_at":"2026-05-30T16:18:06.042337+00:00"}
{"norad_cat_id":"45088","object_name":"STARLINK-1183","object_id":"2020-006AW","object_type":"PAYLOAD","country_code":"US","epoch":"2026-05-30T04:46:35.601888","creation_date":"2026-05-30T07:36:53","launch_date":"2020-01-29","decay_date":null,"inclination":53.1588,"eccentricity":0.0004254,"mean_motion":15.34140515,"period":93.864,"semimajor_axis":6841.612,"apoapsis":466.387,"periapsis":460.566,"tle_line0":"0 STARLINK-1183","tle_line1":"1 45088U 20006AW  26150.19902317  .00058808  00000-0  17520-2 0  9995","tle_line2":"2 45088  53.1588 223.2546 0004254 348.4710  11.6195 15.34140515349573","fetched_at":"2026-05-30T16:18:06.042337+00:00"}
{"norad_cat_id":"5050","object_name":"COSMOS 400","object_id":"1971-020A","object_type":"PAYLOAD","country_code":"CIS","epoch":"2026-05-30T04:46:33.534336","creation_date":"2026-05-30T07:26:56","launch_date":"1971-03-18","decay_date":null,"inclination":65.8249,"eccentricity":0.0008883,"mean_motion":13.72204882,"period":104.941,"semimajor_axis":7369.803,"apoapsis":998.214,"periapsis":985.121,"tle_line0":"0 COSMOS 400","tle_line1":"1  5050U 71020A   26150.19899924 -.00000055  00000-0  27390-4 0  9991","tle_line2":"2  5050  65.8249 236.8185 0008883 230.8434 151.9320 13.72204882765488","fetched_at":"2026-05-30T16:18:06.042337+00:00"}
{"norad_cat_id":"15471","object_name":"COSMOS 1619","object_id":"1985-003C","object_type":"PAYLOAD","country_code":"CIS","epoch":"2026-05-30T04:46:31.859040","creation_date":"2026-05-30T07:36:53","launch_date":"1985-01-15","decay_date":null,"inclination":82.6088,"eccentricity":0.0020436,"mean_motion":12.66279064,"period":113.719,"semimajor_axis":7775.271,"apoapsis":1413.026,"periapsis":1381.247,"tle_line0":"0 COSMOS 1619","tle_line1":"1 15471U 85003C   26150.19897985  .00000021  00000-0  50768-4 0  9997","tle_line2":"2 15471  82.6088  54.0702 0020436  80.9123  72.7172 12.66279064911772","fetched_at":"2026-05-30T16:18:06.042337+00:00"}
{"norad_cat_id":"34303","object_name":"COSMOS 2251 DEB","object_id":"1993-036MZ","object_type":"DEBRIS","country_code":"CIS","epoch":"2026-05-30T04:46:31.254240","creation_date":"2026-05-30T07:26:56","launch_date":"1993-06-16","decay_date":null,"inclination":74.0043,"eccentricity":0.013494,"mean_motion":14.56387586,"period":98.875,"semimajor_axis":7082.999,"apoapsis":800.442,"periapsis":609.286,"tle_line0":"0 COSMOS 2251 DEB","tle_line1":"1 34303U 93036MZ  26150.19897285  .00008989  00000-0  17937-2 0  9990","tle_line2":"2 34303  74.0043 328.1551 0134940  66.2533  50.1078 14.56387586904135","fetched_at":"2026-05-30T16:18:06.042337+00:00"}
{"norad_cat_id":"48611","object_name":"NOAA 17 DEB","object_id":"2002-032AC","object_type":"DEBRIS","country_code":"US","epoch":"2026-05-30T04:46:30.422208","creation_date":"2026-05-30T07:36:53","launch_date":"2002-06-24","decay_date":null,"inclination":98.7366,"eccentricity":0.0002611,"mean_motion":14.59033952,"period":98.695,"semimajor_axis":7074.432,"apoapsis":698.144,"periapsis":694.45,"tle_line0":"0 NOAA 17 DEB","tle_line1":"1 48611U 02032AC  26150.19896322  .00013269  00000-0  28297-2 0  9992","tle_line2":"2 48611  98.7366 141.9036 0002611 304.3845  55.7105 14.59033952268899","fetched_at":"2026-05-30T16:18:06.042337+00:00"}
{"norad_cat_id":"61220","object_name":"KINEIS-3C","object_id":"2024-172A","object_type":"PAYLOAD","country_code":"FR","epoch":"2026-05-30T04:46:29.858016","creation_date":"2026-05-30T07:46:57","launch_date":"2024-09-20","decay_date":null,"inclination":98.0427,"eccentricity":0.000174,"mean_motion":14.72328718,"period":97.804,"semimajor_axis":7031.781,"apoapsis":654.869,"periapsis":652.422,"tle_line0":"0 KINEIS-3C","tle_line1":"1 61220U 24172A   26150.19895669  .00002955  00000-0  47507-3 0  9991","tle_line2":"2 61220  98.0427 240.2874 0001740 154.7746 205.3546 14.72328718 90429","fetched_at":"2026-05-30T16:18:06.042337+00:00"}
{"norad_cat_id":"54687","object_name":"OBJECT F","object_id":"2022-167F","object_type":"UNKNOWN","country_code":"PRC","epoch":"2026-05-30T04:46:27.203808","creation_date":"2026-05-30T07:36:53","launch_date":"2022-12-09","decay_date":null,"inclination":97.6145,"eccentricity":0.000199,"mean_motion":15.85472517,"period":90.825,"semimajor_axis":6693.132,"apoapsis":316.329,"periapsis":313.665,"tle_line0":"0 OBJECT F","tle_line1":"1 54687U 22167F   26150.19892597  .00202685  00000-0  83229-3 0  9992","tle_line2":"2 54687  97.6145 335.9867 0001990 157.7738 202.3619 15.85472517193979","fetched_at":"2026-05-30T16:18:06.042337+00:00"}
{"norad_cat_id":"59328","object_name":"STARLINK-31614","object_id":"2024-057J","object_type":"PAYLOAD","country_code":"US","epoch":"2026-05-30T04:46:17.869152","creation_date":"2026-05-30T07:36:53","launch_date":"2024-03-25","decay_date":null,"inclination":43.0023,"eccentricity":0.0001187,"mean_motion":15.27583331,"period":94.267,"semimajor_axis":6861.176,"apoapsis":483.856,"periapsis":482.227,"tle_line0":"0 STARLINK-31614","tle_line1":"1 59328U 24057J   26150.19881793  .00000451  00000-0  25921-4 0  9998","tle_line2":"2 59328  43.0023  86.8613 0001187 275.8609  84.2107 15.27583331122305","fetched_at":"2026-05-30T16:18:06.042337+00:00"}
{"norad_cat_id":"55107","object_name":"AAC-AIS-SAT-1","object_id":"2023-001DC","object_type":"PAYLOAD","country_code":"UK","epoch":"2026-05-30T04:46:16.682016","creation_date":"2026-05-30T07:36:53","launch_date":"2023-01-03","decay_date":null,"inclination":97.9198,"eccentricity":0.0008651,"mean_motion":14.91935104,"period":96.519,"semimajor_axis":6970.039,"apoapsis":597.934,"periapsis":585.874,"tle_line0":"0 AAC-AIS-SAT-1","tle_line1":"1 55107U 23001DC  26150.19880419  .00006856  00000-0  68240-3 0  9996","tle_line2":"2 55107  97.9198 226.8780 0008651 346.3018  13.7964 14.91935104175607","fetched_at":"2026-05-30T16:18:06.042337+00:00"}
{"norad_cat_id":"42348","object_name":"NOAA 16 DEB","object_id":"2000-055QQ","object_type":"DEBRIS","country_code":"US","epoch":"2026-05-30T04:46:15.780864","creation_date":"2026-05-30T07:26:56","launch_date":"2000-09-21","decay_date":null,"inclination":98.8097,"eccentricity":0.0055625,"mean_motion":14.16158681,"period":101.684,"semimajor_axis":7216.51,"apoapsis":878.517,"periapsis":798.233,"tle_line0":"0 NOAA 16 DEB","tle_line1":"1 42348U 00055QQ  26150.19879376  .00004146  00000-0  20858-2 0  9995","tle_line2":"2 42348  98.8097 142.6908 0055625 337.3142  22.5575 14.16158681526730","fetched_at":"2026-05-30T16:18:06.042337+00:00"}
{"norad_cat_id":"19906","object_name":"COSMOS 2012","object_id":"1989-025E","object_type":"PAYLOAD","country_code":"CIS","epoch":"2026-05-30T04:46:14.083104","creation_date":"2026-05-30T07:36:53","launch_date":"1989-03-24","decay_date":null,"inclination":74.0106,"eccentricity":0.0010611,"mean_motion":12.50246133,"period":115.177,"semimajor_axis":7841.603,"apoapsis":1471.788,"periapsis":1455.147,"tle_line0":"0 COSMOS 2012","tle_line1":"1 19906U 89025E   26150.19877411 -.00000011  00000-0  33518-4 0  9998","tle_line2":"2 19906  74.0106 321.2299 0010611 249.2507 224.5480 12.50246133697027","fetched_at":"2026-05-30T16:18:06.042337+00:00"}
{"norad_cat_id":"67187","object_name":"STARLINK-35880","object_id":"2025-303AA","object_type":"PAYLOAD","country_code":"US","epoch":"2026-05-30T04:46:11.301024","creation_date":"2026-05-30T07:26:56","launch_date":"2025-12-17","decay_date":null,"inclination":42.9981,"eccentricity":4.76e-05,"mean_motion":15.27595876,"period":94.266,"semimajor_axis":6861.139,"apoapsis":483.33,"periapsis":482.677,"tle_line0":"0 STARLINK-35880","tle_line1":"1 67187U 25303AA  26150.19874191  .00024674  00000-0  90273-3 0  9993","tle_line2":"2 67187  42.9981 210.1526 0000476 242.8513 117.2290 15.27595876 25209","fetched_at":"2026-05-30T16:18:06.042337+00:00"}
